IRIDIUM 63              
1 25286U 98021B   25075.88286638  .00000828  00000+0  27604-3 0  9990
2 25286  86.3961 120.8689 0002221  96.7055 263.4394 14.36423459410592
IRIDIUM 69              
1 25319U 98026A   25075.90019443  .00001112  00000+0  34130-3 0  9992
2 25319  86.3987 134.4252 0002101  31.6984 328.4342 14.40821520409779
IRIDIUM 71              
1 25320U 98026B   25075.85015264  .00000965  00000+0  29422-3 0  9998
2 25320  86.3972 129.1557 0003809  63.9177 296.2414 14.41028456410291
IRIDIUM 73              
1 25344U 98032C   25075.96882386  .00001549  00000+0  38278-3 0  9998
2 25344  86.4351  85.9914 0001912  76.6876 283.4543 14.51505240417183
IRIDIUM 82              
1 25467U 98051A   25075.78698046  .00035358  00000+0  11922-2 0  9994
2 25467  86.3737 154.9691 0093308 285.9641  73.1341 15.26392018409833
